H1 CPF  1  DGF 2022 03 13 10  5721 larets     NONE      
H2   304206 5557    27944 2022 03 13 00 00 00 2022 03 20 00 00 00    30 1 1  0 0 0
H5  0.0650
H9
10 0 59653   3600.000000  0      -6456643.159      -1469052.671      -2443192.579
10 0 59653   3630.000000  0      -6388884.692      -1403833.092      -2651100.181
10 0 59653   3660.000000  0      -6314348.608      -1337498.687      -2856294.905
10 0 59653   3690.000000  0      -6233107.195      -1270146.599      -3058567.331
10 0 59653   3720.000000  0      -6145240.009      -1201874.654      -3257711.139
10 0 59653   3750.000000  0      -6050833.781      -1132781.237      -3453523.320
10 0 59653   3780.000000  0      -5949982.324      -1062965.154      -3645804.386
10 0 59653   3810.000000  0      -5842786.430       -992525.494      -3834358.573
10 0 59653   3840.000000  0      -5729353.755       -921561.502      -4018994.043
10 0 59653   3870.000000  0      -5609798.703       -850172.437      -4199523.079
10 0 59653   3900.000000  0      -5484242.294       -778457.450      -4375762.270
10 0 59653   3930.000000  0      -5352812.034       -706515.440      -4547532.700
10 0 59653   3960.000000  0      -5215641.774       -634444.934      -4714660.126
10 0 59653   3990.000000  0      -5072871.557       -562343.954      -4876975.145
10 0 59653   4020.000000  0      -4924647.470       -490309.891      -5034313.372
10 0 59653   4050.000000  0      -4771121.480       -418439.381      -5186515.592
10 0 59653   4080.000000  0      -4612451.265       -346828.175      -5333427.923
10 0 59653   4110.000000  0      -4448800.045       -275571.024      -5474901.959
10 0 59653   4140.000000  0      -4280336.400       -204761.554      -5610794.915
10 0 59653   4170.000000  0      -4107234.088       -134492.150      -5740969.758
10 0 59653   4200.000000  0      -3929671.859        -64853.840      -5865295.343
10 0 59653   4230.000000  0      -3747833.263          4063.816      -5983646.529
10 0 59653   4260.000000  0      -3561906.447         72172.837      -6095904.299
10 0 59653   4290.000000  0      -3372083.964        139386.931      -6201955.871
10 0 59653   4320.000000  0      -3178562.563        205621.592      -6301694.798
10 0 59653   4350.000000  0      -2981542.983        270794.209      -6395021.066
10 0 59653   4380.000000  0      -2781229.744        334824.159      -6481841.194
10 0 59653   4410.000000  0      -2577830.926        397632.901      -6562068.312
10 0 59653   4440.000000  0      -2371557.949        459144.070      -6635622.246
10 0 59653   4470.000000  0      -2162625.353        519283.565      -6702429.580
10 0 59653   4500.000000  0      -1951250.571        577979.632      -6762423.728
10 0 59653   4530.000000  0      -1737653.711        635162.948      -6815544.986
10 0 59653   4560.000000  0      -1522057.317        690766.704      -6861740.589
10 0 59653   4590.000000  0      -1304686.146        744726.672      -6900964.752
10 0 59653   4620.000000  0      -1085766.931        796981.284      -6933178.709
10 0 59653   4650.000000  0       -865528.149        847471.695      -6958350.744
10 0 59653   4680.000000  0       -644199.789        896141.847      -6976456.216
10 0 59653   4710.000000  0       -422013.110        942938.529      -6987477.578
10 0 59653   4740.000000  0       -199200.414        987811.431      -6991404.393
10 0 59653   4770.000000  0         24005.196       1030713.198      -6988233.345
10 0 59653   4800.000000  0        247370.055       1071599.475      -6977968.244
10 0 59653   4830.000000  0        470660.181       1110428.954      -6960620.024
10 0 59653   4860.000000  0        693641.517       1147163.418      -6936206.733
10 0 59653   4890.000000  0        916080.185       1181767.773      -6904753.512
10 0 59653   4920.000000  0       1137742.716       1214210.087      -6866292.562
10 0 59653   4950.000000  0       1358396.299       1244461.614      -6820863.112
10 0 59653   4980.000000  0       1577809.011       1272496.818      -6768511.385
10 0 59653   5010.000000  0       1795750.066       1298293.395      -6709290.556
10 0 59653   5040.000000  0       2011990.053       1321832.290      -6643260.698
10 0 59653   5070.000000  0       2226301.178       1343097.711      -6570488.730
10 0 59653   5100.000000  0       2438457.505       1362077.132      -6491048.343
10 0 59653   5130.000000  0       2648235.191       1378761.302      -6405019.929
10 0 59653   5160.000000  0       2855412.711       1393144.239      -6312490.505
10 0 59653   5190.000000  0       3059771.096       1405223.231      -6213553.631
10 0 59653   5220.000000  0       3261094.157       1414998.819      -6108309.325
10 0 59653   5250.000000  0       3459168.719       1422474.797      -5996863.967
10 0 59653   5280.000000  0       3653784.845       1427658.184      -5879330.199
10 0 59653   5310.000000  0       3844736.059       1430559.209      -5755826.822
10 0 59653   5340.000000  0       4031819.569       1431191.288      -5626478.675
10 0 59653   5370.000000  0       4214836.482       1429570.988      -5491416.529
10 0 59653   5400.000000  0       4393592.023       1425718.004      -5350776.952
10 0 59653   5430.000000  0       4567895.747       1419655.115      -5204702.180
10 0 59653   5460.000000  0       4737561.747       1411408.150      -5053339.979
10 0 59653   5490.000000  0       4902408.850       1401005.937      -4896843.497
10 0 59653   5520.000000  0       5062260.820       1388480.260      -4735371.119
10 0 59653   5550.000000  0       5216946.549       1373865.800      -4569086.311
10 0 59653   5580.000000  0       5366300.246       1357200.085      -4398157.463
10 0 59653   5610.000000  0       5510161.623       1338523.430      -4222757.718
10 0 59653   5640.000000  0       5648376.071       1317878.868      -4043064.808
10 0 59653   5670.000000  0       5780794.831       1295312.090      -3859260.872
10 0 59653   5700.000000  0       5907275.164       1270871.366      -3671532.281
10 0 59653   5730.000000  0       6027680.510       1244607.479      -3480069.454
10 0 59653   5760.000000  0       6141880.647       1216573.643      -3285066.663
10 0 59653   5790.000000  0       6249751.838       1186825.425      -3086721.842
10 0 59653   5820.000000  0       6351176.976       1155420.660      -2885236.389
10 0 59653   5850.000000  0       6446045.715       1122419.367      -2680814.954
10 0 59653   5880.000000  0       6534254.605       1087883.658      -2473665.238
10 0 59653   5910.000000  0       6615707.204       1051877.644      -2263997.778
10 0 59653   5940.000000  0       6690314.196       1014467.343      -2052025.731
10 0 59653   5970.000000  0       6757993.496        975720.581      -1837964.657
10 0 59653   6000.000000  0       6818670.341        935706.888      -1622032.294
10 0 59653   6030.000000  0       6872277.379        894497.399      -1404448.337
10 0 59653   6060.000000  0       6918754.754        852164.747      -1185434.213
10 0 59653   6090.000000  0       6958050.172        808782.957       -965212.848
10 0 59653   6120.000000  0       6990118.966        764427.338       -744008.436
10 0 59653   6150.000000  0       7014924.146        719174.376       -522046.210
10 0 59653   6180.000000  0       7032436.445        673101.619       -299552.207
10 0 59653   6210.000000  0       7042634.357        626287.569        -76753.039
10 0 59653   6240.000000  0       7045504.169        578811.569        146124.342
10 0 59653   6270.000000  0       7041039.980        530753.681        368852.885
10 0 59653   6300.000000  0       7029243.714        482194.576        591205.675
10 0 59653   6330.000000  0       7010125.115        433215.409        812956.167
10 0 59653   6360.000000  0       6983701.746        383897.708       1033878.425
10 0 59653   6390.000000  0       6949998.967        334323.252       1253747.353
10 0 59653   6420.000000  0       6909049.920        284573.955       1472338.936
10 0 59653   6450.000000  0       6860895.481        234731.749       1689430.473
10 0 59653   6480.000000  0       6805584.221        184878.468       1904800.810
10 0 59653   6510.000000  0       6743172.346        135095.723       2118230.568
10 0 59653   6540.000000  0       6673723.638         85464.798       2329502.363
10 0 59653   6570.000000  0       6597309.392         36066.522       2538401.035
10 0 59653   6600.000000  0       6514008.333        -13018.842       2744713.870
10 0 59653   6630.000000  0       6423906.534        -61711.714       2948230.823
10 0 59653   6660.000000  0       6327097.311       -109933.313       3148744.732
10 0 59653   6690.000000  0       6223681.119       -157605.765       3346051.531
10 0 59653   6720.000000  0       6113765.440       -204652.211       3539950.452
10 0 59653   6750.000000  0       5997464.668       -250996.915       3730244.226
10 0 59653   6780.000000  0       5874899.992       -296565.365       3916739.283
10 0 59653   6810.000000  0       5746199.262       -341284.385       4099245.958
10 0 59653   6840.000000  0       5611496.849       -385082.239       4277578.686
10 0 59653   6870.000000  0       5470933.490       -427888.729       4451556.183
10 0 59653   6900.000000  0       5324656.138       -469635.303       4621001.629
10 0 59653   6930.000000  0       5172817.801       -510255.138       4785742.847
10 0 59653   6960.000000  0       5015577.376       -549683.243       4945612.477
10 0 59653   6990.000000  0       4853099.468       -587856.545       5100448.141
10 0 59653   7020.000000  0       4685554.213       -624713.978       5250092.602
10 0 59653   7050.000000  0       4513117.091       -660196.562       5394393.913
10 0 59653   7080.000000  0       4335968.747       -694247.489       5533205.569
10 0 59653   7110.000000  0       4154294.791       -726812.200       5666386.651
10 0 59653   7140.000000  0       3968285.606       -757838.459       5793801.969
10 0 59653   7170.000000  0       3778136.138       -787276.427       5915322.193
99
